{
  "type": "FeatureCollection",
  "features": [
    {
      "type": "Feature",
      "properties": {
        "norad_id": 36987,
        "name": "FENGYUN 1C DEB",
        "group": "fengyun-1c-debris",
        "lat": -59.25356928795171,
        "lon": 19.268476419760486,
        "alt_km": 1331.2968373104113,
        "timestamp": "2025-12-03T22:42:32.922576+00:00",
        "meta_object_name": "FENGYUN 1C DEB",
        "meta_object_id": "1999-025EBT",
        "meta_epoch": "2025-12-02T22:20:26.678112",
        "meta_mean_motion": 13.45848685,
        "meta_eccentricity": 0.03193784,
        "meta_inclination": 100.8193,
        "meta_ra_of_asc_node": 216.9246,
        "meta_arg_of_pericenter": 70.1145,
        "meta_mean_anomaly": 293.4099,
        "meta_ephemeris_type": 0,
        "meta_classification_type": "U",
        "meta_norad_cat_id": 36987,
        "meta_element_set_no": 999,
        "meta_rev_at_epoch": 60745,
        "meta_bstar": 0.0014450845,
        "meta_mean_motion_dot": 1.124e-05,
        "meta_mean_motion_ddot": 0,
        "tle_line1": "1 36987U 99025EBT 25336.93086433  .00001124  00000+0  14451-2 0  9997",
        "tle_line2": "2 36987 100.8193 216.9246 0319378  70.1145 293.4099 13.45848685607456"
      },
      "geometry": {
        "type": "Point",
        "coordinates": [
          19.268476419760486,
          -59.25356928795171
        ]
      }
    },
    {
      "type": "Feature",
      "properties": {
        "norad_id": 36994,
        "name": "FENGYUN 1C DEB",
        "group": "fengyun-1c-debris",
        "lat": -72.25816167824695,
        "lon": 92.42823808595425,
        "alt_km": 894.4215474882949,
        "timestamp": "2025-12-03T22:42:32.922585+00:00",
        "meta_object_name": "FENGYUN 1C DEB",
        "meta_object_id": "1999-025ECA",
        "meta_epoch": "2025-12-02T04:02:29.947488",
        "meta_mean_motion": 13.90778611,
        "meta_eccentricity": 0.01150307,
        "meta_inclination": 98.6418,
        "meta_ra_of_asc_node": 299.1542,
        "meta_arg_of_pericenter": 322.4253,
        "meta_mean_anomaly": 36.8909,
        "meta_ephemeris_type": 0,
        "meta_classification_type": "U",
        "meta_norad_cat_id": 36994,
        "meta_element_set_no": 999,
        "meta_rev_at_epoch": 80760,
        "meta_bstar": 0.00021509724,
        "meta_mean_motion_dot": 2.43e-06,
        "meta_mean_motion_ddot": 0,
        "tle_line1": "1 36994U 99025ECA 25336.16840217  .00000243  00000+0  21510-3 0  9994",
        "tle_line2": "2 36994  98.6418 299.1542 0115030 322.4253  36.8909 13.90778611807601"
      },
      "geometry": {
        "type": "Point",
        "coordinates": [
          92.42823808595425,
          -72.25816167824695
        ]
      }
    },
    {
      "type": "Feature",
      "properties": {
        "norad_id": 36995,
        "name": "FENGYUN 1C DEB",
        "group": "fengyun-1c-debris",
        "lat": 73.2132631086464,
        "lon": -171.7559498703273,
        "alt_km": 874.1876791444865,
        "timestamp": "2025-12-03T22:42:32.922594+00:00",
        "meta_object_name": "FENGYUN 1C DEB",
        "meta_object_id": "1999-025ECB",
        "meta_epoch": "2025-12-02T22:25:21.666720",
        "meta_mean_motion": 14.04865575,
        "meta_eccentricity": 0.00390494,
        "meta_inclination": 98.3441,
        "meta_ra_of_asc_node": 216.4246,
        "meta_arg_of_pericenter": 339.4801,
        "meta_mean_anomaly": 20.4798,
        "meta_ephemeris_type": 0,
        "meta_classification_type": "U",
        "meta_norad_cat_id": 36995,
        "meta_element_set_no": 999,
        "meta_rev_at_epoch": 63419,
        "meta_bstar": 4.8277221e-05,
        "meta_mean_motion_dot": 3.9e-07,
        "meta_mean_motion_ddot": 0,
        "tle_line1": "1 36995U 99025ECB 25336.93427855  .00000039  00000+0  48277-4 0  9992",
        "tle_line2": "2 36995  98.3441 216.4246 0039049 339.4801  20.4798 14.04865575634199"
      },
      "geometry": {
        "type": "Point",
        "coordinates": [
          -171.7559498703273,
          73.2132631086464
        ]
      }
    },
    {
      "type": "Feature",
      "properties": {
        "norad_id": 36996,
        "name": "FENGYUN 1C DEB",
        "group": "fengyun-1c-debris",
        "lat": -27.998257763227894,
        "lon": 135.30984900554694,
        "alt_km": 722.3192435674146,
        "timestamp": "2025-12-03T22:42:32.922603+00:00",
        "meta_object_name": "FENGYUN 1C DEB",
        "meta_object_id": "1999-025ECC",
        "meta_epoch": "2025-11-27T05:46:51.154176",
        "meta_mean_motion": 14.11461211,
        "meta_eccentricity": 0.02552856,
        "meta_inclination": 98.2247,
        "meta_ra_of_asc_node": 124.7451,
        "meta_arg_of_pericenter": 33.8599,
        "meta_mean_anomaly": 87.2847,
        "meta_ephemeris_type": 0,
        "meta_classification_type": "U",
        "meta_norad_cat_id": 36996,
        "meta_element_set_no": 999,
        "meta_rev_at_epoch": 59473,
        "meta_bstar": 0.00085126792,
        "meta_mean_motion_dot": 2.056e-05,
        "meta_mean_motion_ddot": 0,
        "tle_line1": "1 36996U 99025ECC 25331.24086984  .00002056  00000+0  85127-3 0  9991",
        "tle_line2": "2 36996  98.2247 124.7451 0255285  33.8599  87.2847 14.11461211594731"
      },
      "geometry": {
        "type": "Point",
        "coordinates": [
          135.30984900554694,
          -27.998257763227894
        ]
      }
    },
    {
      "type": "Feature",
      "properties": {
        "norad_id": 37003,
        "name": "FENGYUN 1C DEB",
        "group": "fengyun-1c-debris",
        "lat": 31.58782606165026,
        "lon": -172.59194857386606,
        "alt_km": 849.7922356369545,
        "timestamp": "2025-12-03T22:42:32.922612+00:00",
        "meta_object_name": "FENGYUN 1C DEB",
        "meta_object_id": "1999-025ECK",
        "meta_epoch": "2025-11-29T08:00:12.278880",
        "meta_mean_motion": 13.96183433,
        "meta_eccentricity": 0.00964489,
        "meta_inclination": 98.8482,
        "meta_ra_of_asc_node": 357.4784,
        "meta_arg_of_pericenter": 198.9753,
        "meta_mean_anomaly": 177.4394,
        "meta_ephemeris_type": 0,
        "meta_classification_type": "U",
        "meta_norad_cat_id": 37003,
        "meta_element_set_no": 999,
        "meta_rev_at_epoch": 60470,
        "meta_bstar": 0.00050828845,
        "meta_mean_motion_dot": 6.84e-06,
        "meta_mean_motion_ddot": 0,
        "tle_line1": "1 37003U 99025ECK 25333.33347545  .00000684  00000+0  50829-3 0  9992",
        "tle_line2": "2 37003  98.8482 357.4784 0096448 198.9753 177.4394 13.96183433604708"
      },
      "geometry": {
        "type": "Point",
        "coordinates": [
          -172.59194857386606,
          31.58782606165026
        ]
      }
    },
    {
      "type": "Feature",
      "properties": {
        "norad_id": 37006,
        "name": "FENGYUN 1C DEB",
        "group": "fengyun-1c-debris",
        "lat": -62.927674934057634,
        "lon": 26.91284891655053,
        "alt_km": 578.0322136997447,
        "timestamp": "2025-12-03T22:42:32.922621+00:00",
        "meta_object_name": "FENGYUN 1C DEB",
        "meta_object_id": "1999-025ECN",
        "meta_epoch": "2025-11-30T22:17:22.604640",
        "meta_mean_motion": 14.48720025,
        "meta_eccentricity": 0.02561349,
        "meta_inclination": 99.2981,
        "meta_ra_of_asc_node": 222.2839,
        "meta_arg_of_pericenter": 283.324,
        "meta_mean_anomaly": 73.9509,
        "meta_ephemeris_type": 0,
        "meta_classification_type": "U",
        "meta_norad_cat_id": 37006,
        "meta_element_set_no": 999,
        "meta_rev_at_epoch": 64943,
        "meta_bstar": 0.00098281369,
        "meta_mean_motion_dot": 5.562e-05,
        "meta_mean_motion_ddot": 0,
        "tle_line1": "1 37006U 99025ECN 25334.92873385  .00005562  00000+0  98281-3 0  9991",
        "tle_line2": "2 37006  99.2981 222.2839 0256134 283.3240  73.9509 14.48720025649439"
      },
      "geometry": {
        "type": "Point",
        "coordinates": [
          26.91284891655053,
          -62.927674934057634
        ]
      }
    },
    {
      "type": "Feature",
      "properties": {
        "norad_id": 37008,
        "name": "FENGYUN 1C DEB",
        "group": "fengyun-1c-debris",
        "lat": 37.75020110371584,
        "lon": -76.14921565476122,
        "alt_km": 895.9237373822061,
        "timestamp": "2025-12-03T22:42:32.922630+00:00",
        "meta_object_name": "FENGYUN 1C DEB",
        "meta_object_id": "1999-025ECQ",
        "meta_epoch": "2025-12-03T06:40:56.896320",
        "meta_mean_motion": 14.07864838,
        "meta_eccentricity": 0.0061332,
        "meta_inclination": 99.1352,
        "meta_ra_of_asc_node": 96.0185,
        "meta_arg_of_pericenter": 279.9082,
        "meta_mean_anomaly": 79.5167,
        "meta_ephemeris_type": 0,
        "meta_classification_type": "U",
        "meta_norad_cat_id": 37008,
        "meta_element_set_no": 999,
        "meta_rev_at_epoch": 60181,
        "meta_bstar": 0.00175,
        "meta_mean_motion_dot": 2.974e-05,
        "meta_mean_motion_ddot": 0,
        "tle_line1": "1 37008U 99025ECQ 25337.27843630  .00002974  00000+0  17500-2 0  9992",
        "tle_line2": "2 37008  99.1352  96.0185 0061332 279.9082  79.5167 14.07864838601810"
      },
      "geometry": {
        "type": "Point",
        "coordinates": [
          -76.14921565476122,
          37.75020110371584
        ]
      }
    }
  ]
}